{"fetched_at":"2026-07-21T07:06:55.004Z","source":"https://celestrak.org/NORAD/elements/gp.php?NAME=HULIANWANG&FORMAT=JSON","constellation":"guowang","records":[{"OBJECT_NAME":"HULIANWANG DIGUI-12","OBJECT_ID":"2025-030B","EPOCH":"2026-07-20T22:10:45.701184","CLASSIFICATION_TYPE":"U","MEAN_MOTION":13.2932253,"ECCENTRICITY":0.00008674,"INCLINATION":50.0022,"RA_OF_ASC_NODE":114.9511,"ARG_OF_PERICENTER":289.4433,"MEAN_ANOMALY":70.6345,"EPHEMERIS_TYPE":0,"NORAD_CAT_ID":62972,"ELEMENT_SET_NO":999,"REV_AT_EPOCH":7034,"BSTAR":0.000054347469,"MEAN_MOTION_DOT":-9.9e-7,"MEAN_MOTION_DDOT":0},{"OBJECT_NAME":"HULIANWANG DIGUI-13","OBJECT_ID":"2025-030C","EPOCH":"2026-07-20T21:46:33.633408","CLASSIFICATION_TYPE":"U","MEAN_MOTION":13.29324609,"ECCENTRICITY":0.00007043,"INCLINATION":50.0025,"RA_OF_ASC_NODE":114.8793,"ARG_OF_PERICENTER":291.2119,"MEAN_ANOMALY":68.8677,"EPHEMERIS_TYPE":0,"NORAD_CAT_ID":62973,"ELEMENT_SET_NO":999,"REV_AT_EPOCH":7034,"BSTAR":0.000055294868,"MEAN_MOTION_DOT":-9.8e-7,"MEAN_MOTION_DDOT":0},{"OBJECT_NAME":"HULIANWANG DIGUI-14","OBJECT_ID":"2025-030D","EPOCH":"2026-07-20T21:10:32.835072","CLASSIFICATION_TYPE":"U","MEAN_MOTION":13.2932767,"ECCENTRICITY":0.00007081,"INCLINATION":50.003,"RA_OF_ASC_NODE":114.7722,"ARG_OF_PERICENTER":296.3361,"MEAN_ANOMALY":63.7439,"EPHEMERIS_TYPE":0,"NORAD_CAT_ID":62974,"ELEMENT_SET_NO":999,"REV_AT_EPOCH":7034,"BSTAR":0.000062790109,"MEAN_MOTION_DOT":-9.5e-7,"MEAN_MOTION_DDOT":0},{"OBJECT_NAME":"HULIANWANG DIGUI-15","OBJECT_ID":"2025-030E","EPOCH":"2026-07-20T21:34:34.124448","CLASSIFICATION_TYPE":"U","MEAN_MOTION":13.29324619,"ECCENTRICITY":0.00007883,"INCLINATION":50.0026,"RA_OF_ASC_NODE":114.839,"ARG_OF_PERICENTER":294.5166,"MEAN_ANOMALY":65.5624,"EPHEMERIS_TYPE":0,"NORAD_CAT_ID":62975,"ELEMENT_SET_NO":999,"REV_AT_EPOCH":7034,"BSTAR":0.000062444057,"MEAN_MOTION_DOT":-9.5e-7,"MEAN_MOTION_DDOT":0},{"OBJECT_NAME":"HULIANWANG DIGUI-16","OBJECT_ID":"2025-030F","EPOCH":"2026-07-20T20:58:38.525664","CLASSIFICATION_TYPE":"U","MEAN_MOTION":13.29325822,"ECCENTRICITY":0.00006709,"INCLINATION":50.0048,"RA_OF_ASC_NODE":114.7997,"ARG_OF_PERICENTER":294.1313,"MEAN_ANOMALY":65.9488,"EPHEMERIS_TYPE":0,"NORAD_CAT_ID":62976,"ELEMENT_SET_NO":999,"REV_AT_EPOCH":7034,"BSTAR":0.00007065866,"MEAN_MOTION_DOT":-9.1e-7,"MEAN_MOTION_DDOT":0},{"OBJECT_NAME":"HULIANWANG DIGUI-17","OBJECT_ID":"2025-030G","EPOCH":"2026-07-20T22:34:43.705632","CLASSIFICATION_TYPE":"U","MEAN_MOTION":13.29325944,"ECCENTRICITY":0.00007826,"INCLINATION":50.006,"RA_OF_ASC_NODE":114.5382,"ARG_OF_PERICENTER":285.5112,"MEAN_ANOMALY":74.5674,"EPHEMERIS_TYPE":0,"NORAD_CAT_ID":62977,"ELEMENT_SET_NO":999,"REV_AT_EPOCH":7035,"BSTAR":0.000060865513,"MEAN_MOTION_DOT":-9.6e-7,"MEAN_MOTION_DDOT":0},{"OBJECT_NAME":"HULIANWANG DIGUI-18","OBJECT_ID":"2025-030H","EPOCH":"2026-07-20T22:22:39.733248","CLASSIFICATION_TYPE":"U","MEAN_MOTION":13.29327888,"ECCENTRICITY":0.0000807,"INCLINATION":50.0065,"RA_OF_ASC_NODE":114.5094,"ARG_OF_PERICENTER":284.1063,"MEAN_ANOMALY":75.9719,"EPHEMERIS_TYPE":0,"NORAD_CAT_ID":62978,"ELEMENT_SET_NO":999,"REV_AT_EPOCH":7035,"BSTAR":0.000051367595,"MEAN_MOTION_DOT":-0.000001,"MEAN_MOTION_DDOT":0},{"OBJECT_NAME":"HULIANWANG DIGUI-19","OBJECT_ID":"2025-030J","EPOCH":"2026-07-20T21:22:45.244416","CLASSIFICATION_TYPE":"U","MEAN_MOTION":13.29319187,"ECCENTRICITY":0.00007054,"INCLINATION":50.005,"RA_OF_ASC_NODE":114.8945,"ARG_OF_PERICENTER":284.1568,"MEAN_ANOMALY":75.9226,"EPHEMERIS_TYPE":0,"NORAD_CAT_ID":62979,"ELEMENT_SET_NO":999,"REV_AT_EPOCH":7034,"BSTAR":0.000055532232,"MEAN_MOTION_DOT":-9.8e-7,"MEAN_MOTION_DDOT":0},{"OBJECT_NAME":"HULIANWANG DIGUI-20","OBJECT_ID":"2025-086A","EPOCH":"2026-07-20T22:42:08.639712","CLASSIFICATION_TYPE":"U","MEAN_MOTION":13.24411774,"ECCENTRICITY":0.00021474,"INCLINATION":86.5066,"RA_OF_ASC_NODE":301.7636,"ARG_OF_PERICENTER":111.1063,"MEAN_ANOMALY":249.0301,"EPHEMERIS_TYPE":0,"NORAD_CAT_ID":63687,"ELEMENT_SET_NO":999,"REV_AT_EPOCH":5934,"BSTAR":0.00001308777,"MEAN_MOTION_DOT":2e-7,"MEAN_MOTION_DDOT":0},{"OBJECT_NAME":"HULIANWANG DIGUI-21","OBJECT_ID":"2025-086B","EPOCH":"2026-07-20T22:53:04.346592","CLASSIFICATION_TYPE":"U","MEAN_MOTION":13.24410461,"ECCENTRICITY":0.00020991,"INCLINATION":86.5094,"RA_OF_ASC_NODE":301.8279,"ARG_OF_PERICENTER":114.3315,"MEAN_ANOMALY":245.8039,"EPHEMERIS_TYPE":0,"NORAD_CAT_ID":63688,"ELEMENT_SET_NO":999,"REV_AT_EPOCH":5933,"BSTAR":0.000019737378,"MEAN_MOTION_DOT":2.3e-7,"MEAN_MOTION_DDOT":0},{"OBJECT_NAME":"HULIANWANG DIGUI-22","OBJECT_ID":"2025-086C","EPOCH":"2026-07-20T21:15:06.664320","CLASSIFICATION_TYPE":"U","MEAN_MOTION":13.24410752,"ECCENTRICITY":0.00021832,"INCLINATION":86.5059,"RA_OF_ASC_NODE":301.7074,"ARG_OF_PERICENTER":110.3979,"MEAN_ANOMALY":249.739,"EPHEMERIS_TYPE":0,"NORAD_CAT_ID":63689,"ELEMENT_SET_NO":999,"REV_AT_EPOCH":5932,"BSTAR":-0.000001563391,"MEAN_MOTION_DOT":1.4e-7,"MEAN_MOTION_DDOT":0},{"OBJECT_NAME":"HULIANWANG DIGUI-23","OBJECT_ID":"2025-086D","EPOCH":"2026-07-20T21:36:50.142240","CLASSIFICATION_TYPE":"U","MEAN_MOTION":13.24410532,"ECCENTRICITY":0.0002156,"INCLINATION":86.51,"RA_OF_ASC_NODE":301.8943,"ARG_OF_PERICENTER":110.9621,"MEAN_ANOMALY":249.1744,"EPHEMERIS_TYPE":0,"NORAD_CAT_ID":63690,"ELEMENT_SET_NO":999,"REV_AT_EPOCH":5932,"BSTAR":0.000055001478,"MEAN_MOTION_DOT":3.8e-7,"MEAN_MOTION_DDOT":0},{"OBJECT_NAME":"HULIANWANG DIGUI-24","OBJECT_ID":"2025-086E","EPOCH":"2026-07-20T21:47:45.762720","CLASSIFICATION_TYPE":"U","MEAN_MOTION":13.24411189,"ECCENTRICITY":0.00021338,"INCLINATION":86.5107,"RA_OF_ASC_NODE":301.9275,"ARG_OF_PERICENTER":113.3877,"MEAN_ANOMALY":246.7482,"EPHEMERIS_TYPE":0,"NORAD_CAT_ID":63691,"ELEMENT_SET_NO":999,"REV_AT_EPOCH":5932,"BSTAR":0.000072082681,"MEAN_MOTION_DOT":4.6e-7,"MEAN_MOTION_DDOT":0},{"OBJECT_NAME":"HULIANWANG DIGUI-25","OBJECT_ID":"2025-086F","EPOCH":"2026-07-20T21:58:38.708256","CLASSIFICATION_TYPE":"U","MEAN_MOTION":13.24410551,"ECCENTRICITY":0.00020764,"INCLINATION":86.5046,"RA_OF_ASC_NODE":301.6655,"ARG_OF_PERICENTER":111.3356,"MEAN_ANOMALY":248.8,"EPHEMERIS_TYPE":0,"NORAD_CAT_ID":63692,"ELEMENT_SET_NO":999,"REV_AT_EPOCH":5932,"BSTAR":0.000097332829,"MEAN_MOTION_DOT":5.6e-7,"MEAN_MOTION_DDOT":0},{"OBJECT_NAME":"HULIANWANG DIGUI-26","OBJECT_ID":"2025-086G","EPOCH":"2026-07-20T21:25:57.996768","CLASSIFICATION_TYPE":"U","MEAN_MOTION":13.24409555,"ECCENTRICITY":0.00023156,"INCLINATION":86.5094,"RA_OF_ASC_NODE":301.8641,"ARG_OF_PERICENTER":115.6391,"MEAN_ANOMALY":244.4982,"EPHEMERIS_TYPE":0,"NORAD_CAT_ID":63693,"ELEMENT_SET_NO":999,"REV_AT_EPOCH":5932,"BSTAR":0.000019294316,"MEAN_MOTION_DOT":2.3e-7,"MEAN_MOTION_DDOT":0},{"OBJECT_NAME":"HULIANWANG DIGUI-27","OBJECT_ID":"2025-086H","EPOCH":"2026-07-20T22:09:28.508832","CLASSIFICATION_TYPE":"U","MEAN_MOTION":13.24412355,"ECCENTRICITY":0.00021481,"INCLINATION":86.5056,"RA_OF_ASC_NODE":301.7099,"ARG_OF_PERICENTER":112.3405,"MEAN_ANOMALY":247.7957,"EPHEMERIS_TYPE":0,"NORAD_CAT_ID":63694,"ELEMENT_SET_NO":999,"REV_AT_EPOCH":5932,"BSTAR":0.000081046305,"MEAN_MOTION_DOT":4.9e-7,"MEAN_MOTION_DDOT":0}]}
