HULIANWANG DIGUI-12     
1 62972U 25030B   26201.92414006 -.00000099  00000+0  54347-4 0  9998
2 62972  50.0022 114.9511 0000867 289.4433  70.6345 13.29322530 70342
HULIANWANG DIGUI-13     
1 62973U 25030C   26201.90733372 -.00000098  00000+0  55295-4 0  9999
2 62973  50.0025 114.8793 0000704 291.2119  68.8677 13.29324609 70345
HULIANWANG DIGUI-14     
1 62974U 25030D   26201.88232448 -.00000095  00000+0  62790-4 0  9990
2 62974  50.0030 114.7722 0000708 296.3361  63.7439 13.29327670 70343
HULIANWANG DIGUI-15     
1 62975U 25030E   26201.89900607 -.00000095  00000+0  62444-4 0  9997
2 62975  50.0026 114.8390 0000788 294.5166  65.5624 13.29324619 70348
HULIANWANG DIGUI-16     
1 62976U 25030F   26201.87405701 -.00000091  00000+0  70659-4 0  9994
2 62976  50.0048 114.7997 0000670 294.1313  65.9488 13.29325822 70344
HULIANWANG DIGUI-17     
1 62977U 25030G   26201.94078363 -.00000096  00000+0  60866-4 0  9997
2 62977  50.0060 114.5382 0000782 285.5112  74.5674 13.29325944 70359
HULIANWANG DIGUI-18     
1 62978U 25030H   26201.93240432 -.00000100  00000+0  51368-4 0  9998
2 62978  50.0065 114.5094 0000807 284.1063  75.9719 13.29327888 70357
HULIANWANG DIGUI-19     
1 62979U 25030J   26201.89080144 -.00000098  00000+0  55532-4 0  9999
2 62979  50.0050 114.8945 0000705 284.1568  75.9226 13.29319187 70342
HULIANWANG DIGUI-20     
1 63687U 25086A   26201.94593333  .00000020  00000+0  13088-4 0  9996
2 63687  86.5066 301.7636 0002147 111.1063 249.0301 13.24411774 59340
HULIANWANG DIGUI-21     
1 63688U 25086B   26201.95352253  .00000023  00000+0  19737-4 0  9992
2 63688  86.5094 301.8279 0002099 114.3315 245.8039 13.24410461 59330
HULIANWANG DIGUI-22     
1 63689U 25086C   26201.88549380  .00000014  00000+0 -15634-5 0  9998
2 63689  86.5059 301.7074 0002183 110.3979 249.7390 13.24410752 59325
HULIANWANG DIGUI-23     
1 63690U 25086D   26201.90058035  .00000038  00000+0  55001-4 0  9991
2 63690  86.5100 301.8943 0002156 110.9621 249.1744 13.24410532 59323
HULIANWANG DIGUI-24     
1 63691U 25086E   26201.90816855  .00000046  00000+0  72083-4 0  9992
2 63691  86.5107 301.9275 0002133 113.3877 246.7482 13.24411189 59326
HULIANWANG DIGUI-25     
1 63692U 25086F   26201.91572579  .00000056  00000+0  97333-4 0  9992
2 63692  86.5046 301.6655 0002076 111.3356 248.8000 13.24410551 59325
HULIANWANG DIGUI-26     
1 63693U 25086G   26201.89303237  .00000023  00000+0  19294-4 0  9997
2 63693  86.5094 301.8641 0002315 115.6391 244.4982 13.24409555 59321
HULIANWANG DIGUI-27     
1 63694U 25086H   26201.92324663  .00000049  00000+0  81046-4 0  9990
2 63694  86.5056 301.7099 0002148 112.3405 247.7957 13.24412355 59320
